STARLINK-3734
1 52112U 22029AA  26092.83335647  .00015679  00000+0  89423-3 0  9990
2 52112  53.2170 330.3180 0000806 105.2263 291.6264 15.12944132  5784
